[{"OBJECT_NAME":"TRANSPORTER-10 OBJECT AG","OBJECT_ID":"2024-043AG","EPOCH":"2026-03-09T22:12:45.387648","MEAN_MOTION":15.30759727,"ECCENTRICITY":0.00093005,"INCLINATION":97.5471,"RA_OF_ASC_NODE":205.7101,"ARG_OF_PERICENTER":226.5958,"MEAN_ANOMALY":133.4509,"EPHEMERIS_TYPE":0,"CLASSIFICATION_TYPE":"U","NORAD_CAT_ID":59128,"ELEMENT_SET_NO":999,"REV_AT_EPOCH":11192,"BSTAR":0.00032170115,"MEAN_MOTION_DOT":9.498e-5,"MEAN_MOTION_DDOT":0},{"OBJECT_NAME":"STARLINK-35661","OBJECT_ID":"2025-257H","EPOCH":"2026-03-09T17:33:34.030368","MEAN_MOTION":15.30203999,"ECCENTRICITY":9.818e-5,"INCLINATION":53.1605,"RA_OF_ASC_NODE":216.5656,"ARG_OF_PERICENTER":88.2084,"MEAN_ANOMALY":271.9029,"EPHEMERIS_TYPE":0,"CLASSIFICATION_TYPE":"U","NORAD_CAT_ID":66387,"ELEMENT_SET_NO":999,"REV_AT_EPOCH":1974,"BSTAR":0.00099652627,"MEAN_MOTION_DOT":0.00029275,"MEAN_MOTION_DDOT":0}]
