TRANSPORTER-10 OBJECT AG
1 59128U 24043AG  26068.92552531  .00009498  00000+0  32170-3 0  9997
2 59128  97.5471 205.7101 0009300 226.5958 133.4509 15.30759727111920
STARLINK-35661          
1 66387U 25257H   26068.73164387  .00029275  00000+0  99653-3 0  9991
2 66387  53.1605 216.5656 0000981  88.2084 271.9029 15.30203999 19743
